[{"OBJECT_NAME":"YAOGAN-43 01F","OBJECT_ID":"2024-148F","EPOCH":"2026-03-10T00:23:08.877408","MEAN_MOTION":15.29824616,"ECCENTRICITY":0.00057048,"INCLINATION":34.9925,"RA_OF_ASC_NODE":59.8891,"ARG_OF_PERICENTER":18.4862,"MEAN_ANOMALY":341.6062,"EPHEMERIS_TYPE":0,"CLASSIFICATION_TYPE":"U","NORAD_CAT_ID":60463,"ELEMENT_SET_NO":999,"REV_AT_EPOCH":8707,"BSTAR":0.00058388219,"MEAN_MOTION_DOT":0.00017308,"MEAN_MOTION_DDOT":0},{"OBJECT_NAME":"STARLINK-34622","OBJECT_ID":"2025-232L","EPOCH":"2026-03-09T08:49:55.816032","MEAN_MOTION":15.30192748,"ECCENTRICITY":0.00012586,"INCLINATION":53.1591,"RA_OF_ASC_NODE":105.5868,"ARG_OF_PERICENTER":78.9672,"MEAN_ANOMALY":281.147,"EPHEMERIS_TYPE":0,"CLASSIFICATION_TYPE":"U","NORAD_CAT_ID":66015,"ELEMENT_SET_NO":999,"REV_AT_EPOCH":2337,"BSTAR":0.00086724556,"MEAN_MOTION_DOT":0.00025408,"MEAN_MOTION_DDOT":0}]
